satname,norad_id,inclination_deg,eccentricity,mean_motion_rev_per_day,perigee_km,apogee_km,l1,l2
STARLINK-1184,45098,53.0556,0.0005056,15.09156389,535.2792918642126,542.2736747785475,1 45098U 20006BG  26039.33908642  .00031437  00000+0  19669-2 0  9999,2 45098  53.0556  17.8567 0005056  53.2999 306.8455 15.09156389332601
STARLINK-1193,45100,53.0558,0.0004806,15.47067237,422.04093315296814,428.5804070534714,1 45100U 20006BJ  26039.32320372  .00073032  00000+0  14146-2 0  9992,2 45100  53.0558  11.4578 0004806  90.0833 270.0725 15.47067237332693
STARLINK-1143,45179,53.0485,0.0003896,15.56550433,395.00960700496853,400.28929980946396,1 45179U 20012B   26039.39769334  .00038303  00000+0  53405-3 0  9991,2 45179  53.0485 112.3877 0003896 325.2859  34.7897 15.56550433331352
STARLINK-1202,45183,53.1584,0.0001823,15.3021788,473.91232713205136,476.411039832049,1 45183U 20012F   26039.55811159  .00010730  00000+0  37367-3 0  9990,2 45183  53.1584 174.5670 0001823  43.4452 316.6693 15.30217880330493
STARLINK-1216,45185,53.1607,0.0001208,15.30196397,474.3979411194441,476.05371357853073,1 45185U 20012H   26039.67926376  .00001821  00000+0  73591-4 0  9994,2 45185  53.1607 173.9796 0001208  86.3505 273.7634 15.30196397330458
STARLINK-1225,45187,53.161,0.0001371,15.30200962,474.27260288731304,476.1517912371464,1 45187U 20012K   26039.61087285  .00007952  00000+0  28031-3 0  9996,2 45187  53.1610 174.7377 0001371  61.5943 298.5196 15.30200962330485
STARLINK-1230,45189,53.1619,0.0001505,15.30202124,474.17729901351777,476.2401560775088,1 45189U 20012M   26039.68567722  .00009564  00000+0  33458-3 0  9994,2 45189  53.1619 174.4517 0001505  60.3510 299.7641 15.30202124327728
STARLINK-1234,45190,53.0458,0.0007285,15.55613738,395.4310135976175,405.307297065935,1 45190U 20012N   26039.47849466  .00110599  00000+0  15677-2 0  9994,2 45190  53.0458 107.3402 0007285 230.9071 129.1292 15.55613738331329
STARLINK-1269,45197,53.1606,0.0001608,15.30190503,474.141402323653,476.34544946862025,1 45197U 20012V   26039.81312135  .00007844  00000+0  27675-3 0  9997,2 45197  53.1606 173.7163 0001608  70.0104 290.1070 15.30190503330499
STARLINK-1154,45198,53.0494,0.0004885,15.41943825,437.04202428525787,443.70370842468583,1 45198U 20012W   26039.91670139  .00044698  00000+0  10377-2 0  9998,2 45198  53.0494 146.7733 0004885 344.0652 243.3405 15.41943825  5934
STARLINK-1199,45201,53.0551,0.000145,15.06400334,546.206358884102,548.2147096690423,1 45201U 20012Z   26039.54179397  .00002614  00000+0  19431-3 0  9995,2 45201  53.0551 157.4720 0001450 103.9491 256.1659 15.06400334330721
STARLINK-1209,45206,53.0473,0.000885,15.45829514,422.9175346940465,434.9660641690407,1 45206U 20012AE  26039.69170727  .00066081  00000+0  13364-2 0  9990,2 45206  53.0473 112.2380 0008850 204.8077 155.2505 15.45829514330426
STARLINK-1210,45207,53.0113,0.0007134,15.93759109,287.01592704136056,296.53255640104726,1 45207U 20012AF  26039.91670139  .00358361  61024-4  96804-3 0  9992,2 45207  53.0113  48.0653 0007134  46.5249 115.1108 15.93759109  6062
STARLINK-1231,45212,53.047,0.0001921,15.18743209,508.3147032428078,510.96098633817746,1 45212U 20012AL  26039.61302288  .00009329  00000+0  45818-3 0  9990,2 45212  53.0470 149.0605 0001921 320.4537  39.6316 15.18743209330809
STARLINK-1271,45217,53.0544,0.000151,15.06397341,546.1739785394811,548.2654362651165,1 45217U 20012AR  26039.59340107  .00000036  00000+0  21303-4 0  9994,2 45217  53.0544 157.2414 0001510  78.7561 281.3598 15.06397341330738
STARLINK-1191,45222,53.1582,0.0001157,15.31064404,471.84269489287,473.42796360985994,1 45222U 20012AW  26039.74389615  .00010247  00000+0  34825-3 0  9991,2 45222  53.1582 133.3731 0001157  77.7309 282.3821 15.31064404331088
STARLINK-1212,45223,53.0525,0.0003355,15.43177778,434.4511884044696,439.0239692468622,1 45223U 20012AX  26039.91670139  .00058250  00000+0  12928-2 0  9990,2 45223  53.0525 127.6095 0003355 358.4866   3.8325 15.43177778  5932
STARLINK-1215,45225,53.1601,0.0001326,15.30193769,474.3249171739217,476.1424310766997,1 45225U 20012AZ  26039.52530657  .00003256  00000+0  12203-3 0  9992,2 45225  53.1601 133.7669 0001326  83.2226 276.8926 15.30193769331018
STARLINK-1221,45227,53.0672,0.0001986,15.40813368,442.3526893980543,445.062326036521,1 45227U 20012BB  26039.40879639  .00018552  00000+0  45449-3 0  9990,2 45227  53.0672  48.2450 0001986 320.7930  39.2930 15.40813368332199
STARLINK-1222,45228,53.0553,0.000206,15.47191934,423.543677908925,426.3465477394084,1 45228U 20012BC  26039.70596912  .00060055  00000+0  11620-2 0  9992,2 45228  53.0553 121.5576 0002060  15.9790 344.1281 15.47191934331138
STARLINK-1226,45229,53.1579,0.0001342,15.31053896,471.74729705426944,473.5860527606146,1 45229U 20012BD  26039.69523395  .00009259  00000+0  31599-3 0  9993,2 45229  53.1579 133.4008 0001342  91.4047 268.7108 15.31053896330973
STARLINK-1227,45230,53.1608,0.0001514,15.31030381,471.6995998083912,473.7740444017254,1 45230U 20012BE  26039.52706090  .00001454  00000+0  59769-4 0  9991,2 45230  53.1608 134.4977 0001514  87.7012 272.4162 15.31030381331062
STARLINK-1246,45235,53.158,0.0001462,15.29413056,476.5634460564588,478.56805354050084,1 45235U 20012BK  26039.69173089  .00013227  00000+0  46908-3 0  9991,2 45235  53.1580 173.9423 0001462  88.6613 271.4554 15.29413056330535
STARLINK-1270,45237,53.0511,0.0002434,15.4229319,437.68375291970733,441.00250224581396,1 45237U 20012BM  26039.72159007  .00070832  00000+0  16147-2 0  9997,2 45237  53.0511 125.4022 0002434 296.6479  63.4277 15.42293190331192
STARLINK-1279,45360,53.0462,0.0007646,15.51555276,406.9926587106456,417.3764184074089,1 45360U 20019A   26039.82917410  .00093232  00000+0  15355-2 0  9991,2 45360  53.0462 238.1246 0007646 125.3503 234.8221 15.51555276326182
STARLINK-1301,45361,53.0444,0.0009697,15.5758178,388.09050258456045,401.22566136654314,1 45361U 20019B   26039.73068926  .00119171  00000+0  15667-2 0  9998,2 45361  53.0444 245.4698 0009697 112.9776 247.2259 15.57581780326080
STARLINK-1262,45366,53.053,0.0001399,15.06380527,546.3023759087264,548.2401051344241,1 45366U 20019G   26039.10133783  .00006547  00000+0  45826-3 0  9991,2 45366  53.0530 299.4429 0001399  80.0281 280.0866 15.06380527325278
STARLINK-1273,45367,53.0531,0.0001791,15.40642179,442.9909566113147,445.434722323811,1 45367U 20019H   26039.11943947  .00078001  00000+0  18757-2 0  9990,2 45367  53.0531 295.1142 0001791 109.2253 250.8944 15.40642179325335
STARLINK-1276,45368,53.0546,0.0001469,15.06393218,546.2150071128608,548.2496806260897,1 45368U 20019J   26039.09395735 -.00002226  00000+0 -13064-3 0  9999,2 45368  53.0546 299.4779 0001469  98.4161 261.6995 15.06393218325272
STARLINK-1277,45369,53.0539,0.0001826,15.44071274,432.8644013960011,435.35223338591186,1 45369U 20019K   26039.80141543  .00018636  00000+0  40959-3 0  9998,2 45369  53.0539 290.4351 0001826  54.1443 305.9732 15.44071274325460
STARLINK-1281,45370,53.0528,0.0001491,15.06390835,546.2070738275506,548.2722211438304,1 45370U 20019L   26039.21558624 -.00002932  00000+0 -17807-3 0  9997,2 45370  53.0528 298.9315 0001491 109.4004 250.7146 15.06390835325290
STARLINK-1300,45374,53.0532,0.0001333,15.06378245,546.3550768316381,548.201392533204,1 45374U 20019Q   26039.10501951 -.00003733  00000+0 -23198-3 0  9990,2 45374  53.0532 299.4292 0001333  80.0529 280.0610 15.06378245325271
STARLINK-1302,45375,53.0528,0.0001816,15.44626163,431.23993225867525,433.71354716893893,1 45375U 20019R   26039.84214425  .00070124  00000+0  14781-2 0  9992,2 45375  53.0528 289.7105 0001816 103.5386 256.5822 15.44626163325472
STARLINK-1304,45376,53.0536,0.0005694,15.43252869,432.6362496383226,440.39677705932445,1 45376U 20019S   26039.09451792  .00072266  00000+0  15942-2 0  9999,2 45376  53.0536 290.5648 0005694 120.6929 239.4638 15.43252869325398
STARLINK-1305,45377,53.0482,0.000679,15.47408382,419.69183617534236,428.92956014944684,1 45377U 20019T   26039.82492902  .00079332  00000+0  15161-2 0  9993,2 45377  53.0482 270.7908 0006790  79.7102 280.4670 15.47408382325741
STARLINK-1319,45379,53.0505,0.0007156,15.53029558,403.0304378945493,412.7425947511101,1 45379U 20019V   26039.02767250  .00115980  00000+0  18050-2 0  9998,2 45379  53.0505 273.6953 0007156  91.5021 268.6808 15.53029558325630
STARLINK-1266,45383,53.0523,0.0002055,15.41818633,439.340679572555,442.14323882478584,1 45383U 20019Z   26039.84063387  .00017046  00000+0  40480-3 0  9990,2 45383  53.0523 269.9951 0002055 120.1698 239.9511 15.41818633325744
STARLINK-1267,45384,53.0542,0.0007506,15.44768604,426.9463359430074,437.16980077963126,1 45384U 20019AA  26039.80859404  .00077310  00000+0  16179-2 0  9997,2 45384  53.0542 264.9805 0007506 133.6206 226.5423 15.44768604325816
STARLINK-1272,45386,53.0474,0.0007155,15.50431932,410.60321008197843,420.3248531582267,1 45386U 20019AC  26039.84446929  .00103979  00000+0  17793-2 0  9991,2 45386  53.0474 248.9121 0007155 103.5826 256.5980 15.50431932326044
STARLINK-1274,45387,53.0307,0.0010086,15.43099206,430.0951956268518,443.84262727142686,1 45387U 20019AD  26039.80880328  .00085348  00000+0  18854-2 0  9991,2 45387  53.0307 240.5651 0010086 133.9330 226.2508 15.43099206326158
STARLINK-1280,45388,53.0468,0.000722,15.59196288,385.095321807391,394.8684855042693,1 45388U 20019AE  26039.80570230  .00098777  00000+0  12272-2 0  9998,2 45388  53.0468 263.7476 0007220  99.5872 260.5956 15.59196288325829
STARLINK-1283,45389,53.0479,0.0012233,15.50203873,407.8188840383982,424.4417384420776,1 45389U 20019AF  26039.82849778  .00105727  00000+0  18199-2 0  9995,2 45389  53.0479 249.1548 0012233 131.2574 228.9489 15.50203873326047
STARLINK-1284,45390,53.0523,0.0003132,15.46692289,424.27896601557495,428.5413343504497,1 45390U 20019AG  26039.83962831  .00088485  00000+0  17314-2 0  9993,2 45390  53.0523 269.2375 0003132 128.8627 231.2659 15.46692289325750
